{
  "type": "FeatureCollection",
  "features": [
    {
      "type": "Feature",
      "properties": {
        "norad_id": 66174,
        "name": "HTV-X1",
        "group": "stations",
        "lat": -30.37048029036626,
        "lon": 93.79672666189761,
        "alt_km": 420.46643542720994,
        "timestamp": "2025-12-16T23:36:34.944305+00:00",
        "meta_object_name": "HTV-X1",
        "meta_object_id": "2025-241A",
        "meta_epoch": "2025-12-16T02:06:50.626944",
        "meta_mean_motion": 15.49613604,
        "meta_eccentricity": 0.00031739,
        "meta_inclination": 51.6306,
        "meta_ra_of_asc_node": 125.8981,
        "meta_arg_of_pericenter": 255.6781,
        "meta_mean_anomaly": 104.3856,
        "meta_ephemeris_type": 0,
        "meta_classification_type": "U",
        "meta_norad_cat_id": 66174,
        "meta_element_set_no": 999,
        "meta_rev_at_epoch": 51,
        "meta_bstar": 0.00012170727,
        "meta_mean_motion_dot": 6.404e-05,
        "meta_mean_motion_ddot": 0,
        "tle_line1": "1 66174U 25241A   25350.08808596  .00006404  00000+0  12171-3 0  9995",
        "tle_line2": "2 66174  51.6306 125.8981 0003173 255.6781 104.3856 15.49613604   511"
      },
      "geometry": {
        "type": "Point",
        "coordinates": [
          93.79672666189761,
          -30.37048029036626
        ]
      }
    },
    {
      "type": "Feature",
      "properties": {
        "norad_id": 66515,
        "name": "SZ-21 MODULE",
        "group": "stations",
        "lat": -9.595332515278162,
        "lon": -178.8157686145719,
        "alt_km": 380.5912545708097,
        "timestamp": "2025-12-16T23:36:34.944315+00:00",
        "meta_object_name": "SZ-21 MODULE",
        "meta_object_id": "2025-246C",
        "meta_epoch": "2025-12-16T01:18:26.404128",
        "meta_mean_motion": 15.62659653,
        "meta_eccentricity": 0.00061121,
        "meta_inclination": 41.4775,
        "meta_ra_of_asc_node": 355.8239,
        "meta_arg_of_pericenter": 277.4076,
        "meta_mean_anomaly": 82.6069,
        "meta_ephemeris_type": 0,
        "meta_classification_type": "U",
        "meta_norad_cat_id": 66515,
        "meta_element_set_no": 999,
        "meta_rev_at_epoch": 496,
        "meta_bstar": 0.00024372704,
        "meta_mean_motion_dot": 0.00022201,
        "meta_mean_motion_ddot": 0,
        "tle_line1": "1 66515U 25246C   25350.05447227  .00022201  00000+0  24373-3 0  9996",
        "tle_line2": "2 66515  41.4775 355.8239 0006112 277.4076  82.6069 15.62659653  4969"
      },
      "geometry": {
        "type": "Point",
        "coordinates": [
          -178.8157686145719,
          -9.595332515278162
        ]
      }
    },
    {
      "type": "Feature",
      "properties": {
        "norad_id": 66645,
        "name": "SHENZHOU-22",
        "group": "stations",
        "lat": -32.97026244131481,
        "lon": -141.79476795637603,
        "alt_km": 397.4623921807497,
        "timestamp": "2025-12-16T23:36:34.944328+00:00",
        "meta_object_name": "SHENZHOU-22",
        "meta_object_id": "2025-272A",
        "meta_epoch": "2025-12-16T07:14:05.691264",
        "meta_mean_motion": 15.59326293,
        "meta_eccentricity": 0.00078559,
        "meta_inclination": 41.4684,
        "meta_ra_of_asc_node": 355.0821,
        "meta_arg_of_pericenter": 60.8888,
        "meta_mean_anomaly": 299.2736,
        "meta_ephemeris_type": 0,
        "meta_classification_type": "U",
        "meta_norad_cat_id": 66645,
        "meta_element_set_no": 999,
        "meta_rev_at_epoch": 26357,
        "meta_bstar": 0.00021422181,
        "meta_mean_motion_dot": 0.00017088,
        "meta_mean_motion_ddot": 0,
        "tle_line1": "1 66645U 25272A   25350.30145476  .00017088  00000+0  21422-3 0  9997",
        "tle_line2": "2 66645  41.4684 355.0821 0007855  60.8888 299.2736 15.59326293263579"
      },
      "geometry": {
        "type": "Point",
        "coordinates": [
          -141.79476795637603,
          -32.97026244131481
        ]
      }
    },
    {
      "type": "Feature",
      "properties": {
        "norad_id": 66664,
        "name": "SOYUZ-MS 28",
        "group": "stations",
        "lat": -30.370478766546686,
        "lon": 93.79672849117313,
        "alt_km": 420.46643540277364,
        "timestamp": "2025-12-16T23:36:34.944339+00:00",
        "meta_object_name": "SOYUZ-MS 28",
        "meta_object_id": "2025-275A",
        "meta_epoch": "2025-12-16T02:06:50.626944",
        "meta_mean_motion": 15.49613604,
        "meta_eccentricity": 0.00031739,
        "meta_inclination": 51.6306,
        "meta_ra_of_asc_node": 125.8981,
        "meta_arg_of_pericenter": 255.6781,
        "meta_mean_anomaly": 104.3856,
        "meta_ephemeris_type": 0,
        "meta_classification_type": "U",
        "meta_norad_cat_id": 66664,
        "meta_element_set_no": 999,
        "meta_rev_at_epoch": 128,
        "meta_bstar": 0.00012170727,
        "meta_mean_motion_dot": 6.404e-05,
        "meta_mean_motion_ddot": 0,
        "tle_line1": "1 66664U 25275A   25350.08808596  .00006404  00000+0  12171-3 0  9996",
        "tle_line2": "2 66664  51.6306 125.8981 0003173 255.6781 104.3856 15.49613604  1280"
      },
      "geometry": {
        "type": "Point",
        "coordinates": [
          93.79672849117313,
          -30.370478766546686
        ]
      }
    },
    {
      "type": "Feature",
      "properties": {
        "norad_id": 66906,
        "name": "1998-067XS",
        "group": "stations",
        "lat": 4.784827705599445,
        "lon": 125.16736304721839,
        "alt_km": 416.346309984403,
        "timestamp": "2025-12-16T23:36:34.944349+00:00",
        "meta_object_name": "1998-067XS",
        "meta_object_id": "1998-067XS",
        "meta_epoch": "2025-12-15T16:39:04.886784",
        "meta_mean_motion": 15.50732342,
        "meta_eccentricity": 0.00032898,
        "meta_inclination": 51.6303,
        "meta_ra_of_asc_node": 127.7667,
        "meta_arg_of_pericenter": 216.5725,
        "meta_mean_anomaly": 143.504,
        "meta_ephemeris_type": 0,
        "meta_classification_type": "U",
        "meta_norad_cat_id": 66906,
        "meta_element_set_no": 999,
        "meta_rev_at_epoch": 207,
        "meta_bstar": 0.00035286566,
        "meta_mean_motion_dot": 0.00020263,
        "meta_mean_motion_ddot": 0,
        "tle_line1": "1 66906U 98067XS  25349.69380656  .00020263  00000+0  35287-3 0  9993",
        "tle_line2": "2 66906  51.6303 127.7667 0003289 216.5725 143.5040 15.50732342  2071"
      },
      "geometry": {
        "type": "Point",
        "coordinates": [
          125.16736304721839,
          4.784827705599445
        ]
      }
    },
    {
      "type": "Feature",
      "properties": {
        "norad_id": 66907,
        "name": "1998-067XT",
        "group": "stations",
        "lat": 28.361955347946232,
        "lon": 146.62272409446953,
        "alt_km": 409.83632196570943,
        "timestamp": "2025-12-16T23:36:34.944359+00:00",
        "meta_object_name": "1998-067XT",
        "meta_object_id": "1998-067XT",
        "meta_epoch": "2025-12-15T19:37:52.461984",
        "meta_mean_motion": 15.51845045,
        "meta_eccentricity": 0.00041213,
        "meta_inclination": 51.6296,
        "meta_ra_of_asc_node": 127.0953,
        "meta_arg_of_pericenter": 244.2963,
        "meta_mean_anomaly": 115.7601,
        "meta_ephemeris_type": 0,
        "meta_classification_type": "U",
        "meta_norad_cat_id": 66907,
        "meta_element_set_no": 999,
        "meta_rev_at_epoch": 209,
        "meta_bstar": 0.00082636885,
        "meta_mean_motion_dot": 0.0005023,
        "meta_mean_motion_ddot": 0,
        "tle_line1": "1 66907U 98067XT  25349.81796831  .00050230  00000+0  82637-3 0  9992",
        "tle_line2": "2 66907  51.6296 127.0953 0004121 244.2963 115.7601 15.51845045  2094"
      },
      "geometry": {
        "type": "Point",
        "coordinates": [
          146.62272409446953,
          28.361955347946232
        ]
      }
    },
    {
      "type": "Feature",
      "properties": {
        "norad_id": 66908,
        "name": "1998-067XU",
        "group": "stations",
        "lat": 30.605461563579617,
        "lon": 149.24125637619474,
        "alt_km": 409.37258225643563,
        "timestamp": "2025-12-16T23:36:34.944370+00:00",
        "meta_object_name": "1998-067XU",
        "meta_object_id": "1998-067XU",
        "meta_epoch": "2025-12-15T18:04:25.292064",
        "meta_mean_motion": 15.51929885,
        "meta_eccentricity": 0.00042378,
        "meta_inclination": 51.6291,
        "meta_ra_of_asc_node": 127.4116,
        "meta_arg_of_pericenter": 243.4196,
        "meta_mean_anomaly": 116.636,
        "meta_ephemeris_type": 0,
        "meta_classification_type": "U",
        "meta_norad_cat_id": 66908,
        "meta_element_set_no": 999,
        "meta_rev_at_epoch": 208,
        "meta_bstar": 0.00081150303,
        "meta_mean_motion_dot": 0.00049466,
        "meta_mean_motion_ddot": 0,
        "tle_line1": "1 66908U 98067XU  25349.75307051  .00049466  00000+0  81150-3 0  9996",
        "tle_line2": "2 66908  51.6291 127.4116 0004237 243.4196 116.6360 15.51929885  2088"
      },
      "geometry": {
        "type": "Point",
        "coordinates": [
          149.24125637619474,
          30.605461563579617
        ]
      }
    }
  ]
}